{
  "type": "FeatureCollection",
  "features": [
    {
      "type": "Feature",
      "properties": {
        "norad_id": 34350,
        "name": "IRIDIUM 33 DEB",
        "group": "iridium-33-debris",
        "lat": 10.718925095788986,
        "lon": 5.821362143409774,
        "alt_km": 754.6328170061406,
        "timestamp": "2025-12-07T09:35:10.174483+00:00",
        "meta_object_name": "IRIDIUM 33 DEB",
        "meta_object_id": "1997-051ES",
        "meta_epoch": "2025-12-06T14:11:52.830816",
        "meta_mean_motion": 14.45366247,
        "meta_eccentricity": 0.00221806,
        "meta_inclination": 86.328,
        "meta_ra_of_asc_node": 5.4752,
        "meta_arg_of_pericenter": 154.4989,
        "meta_mean_anomaly": 335.7488,
        "meta_ephemeris_type": 0,
        "meta_classification_type": "U",
        "meta_norad_cat_id": 34350,
        "meta_element_set_no": 999,
        "meta_rev_at_epoch": 88204,
        "meta_bstar": 0.00058263212,
        "meta_mean_motion_dot": 2.073e-05,
        "meta_mean_motion_ddot": 0,
        "tle_line1": "1 34350U 97051ES  25340.59158369  .00002073  00000+0  58263-3 0  9995",
        "tle_line2": "2 34350  86.3280   5.4752 0022180 154.4989 335.7488 14.45366247882042"
      },
      "geometry": {
        "type": "Point",
        "coordinates": [
          5.821362143409774,
          10.718925095788986
        ]
      }
    },
    {
      "type": "Feature",
      "properties": {
        "norad_id": 34366,
        "name": "IRIDIUM 33 DEB",
        "group": "iridium-33-debris",
        "lat": 6.7408585401142975,
        "lon": -128.79422731850684,
        "alt_km": 699.8416521404888,
        "timestamp": "2025-12-07T09:35:10.174493+00:00",
        "meta_object_name": "IRIDIUM 33 DEB",
        "meta_object_id": "1997-051FJ",
        "meta_epoch": "2025-12-06T16:52:17.213664",
        "meta_mean_motion": 14.53976386,
        "meta_eccentricity": 0.00220026,
        "meta_inclination": 86.3702,
        "meta_ra_of_asc_node": 51.9384,
        "meta_arg_of_pericenter": 159.0299,
        "meta_mean_anomaly": 330.9373,
        "meta_ephemeris_type": 0,
        "meta_classification_type": "U",
        "meta_norad_cat_id": 34366,
        "meta_element_set_no": 999,
        "meta_rev_at_epoch": 88094,
        "meta_bstar": 0.0020252138,
        "meta_mean_motion_dot": 8.581e-05,
        "meta_mean_motion_ddot": 0,
        "tle_line1": "1 34366U 97051FJ  25340.70297701  .00008581  00000+0  20252-2 0  9995",
        "tle_line2": "2 34366  86.3702  51.9384 0022002 159.0299 330.9373 14.53976386880940"
      },
      "geometry": {
        "type": "Point",
        "coordinates": [
          -128.79422731850684,
          6.7408585401142975
        ]
      }
    },
    {
      "type": "Feature",
      "properties": {
        "norad_id": 34375,
        "name": "IRIDIUM 33 DEB",
        "group": "iridium-33-debris",
        "lat": 58.58478824541882,
        "lon": -169.28892035470915,
        "alt_km": 819.0018676705668,
        "timestamp": "2025-12-07T09:35:10.174504+00:00",
        "meta_object_name": "IRIDIUM 33 DEB",
        "meta_object_id": "1997-051FT",
        "meta_epoch": "2025-12-06T13:07:23.276352",
        "meta_mean_motion": 14.17975687,
        "meta_eccentricity": 0.01028144,
        "meta_inclination": 86.433,
        "meta_ra_of_asc_node": 185.193,
        "meta_arg_of_pericenter": 146.2209,
        "meta_mean_anomaly": 244.0709,
        "meta_ephemeris_type": 0,
        "meta_classification_type": "U",
        "meta_norad_cat_id": 34375,
        "meta_element_set_no": 999,
        "meta_rev_at_epoch": 86624,
        "meta_bstar": 0.00069808059,
        "meta_mean_motion_dot": 1.524e-05,
        "meta_mean_motion_ddot": 0,
        "tle_line1": "1 34375U 97051FT  25340.54679718  .00001524  00000+0  69808-3 0  9990",
        "tle_line2": "2 34375  86.4330 185.1930 0102814 146.2209 244.0709 14.17975687866242"
      },
      "geometry": {
        "type": "Point",
        "coordinates": [
          -169.28892035470915,
          58.58478824541882
        ]
      }
    },
    {
      "type": "Feature",
      "properties": {
        "norad_id": 34376,
        "name": "IRIDIUM 33 DEB",
        "group": "iridium-33-debris",
        "lat": -61.93253272948375,
        "lon": 1.966997819129688,
        "alt_km": 699.8332593976147,
        "timestamp": "2025-12-07T09:35:10.174514+00:00",
        "meta_object_name": "IRIDIUM 33 DEB",
        "meta_object_id": "1997-051FU",
        "meta_epoch": "2025-12-06T19:05:30.332544",
        "meta_mean_motion": 14.6244174,
        "meta_eccentricity": 0.00264861,
        "meta_inclination": 86.2982,
        "meta_ra_of_asc_node": 9.2122,
        "meta_arg_of_pericenter": 186.8183,
        "meta_mean_anomaly": 173.2672,
        "meta_ephemeris_type": 0,
        "meta_classification_type": "U",
        "meta_norad_cat_id": 34376,
        "meta_element_set_no": 999,
        "meta_rev_at_epoch": 87920,
        "meta_bstar": 0.0024561466,
        "meta_mean_motion_dot": 0.00012526,
        "meta_mean_motion_ddot": 0,
        "tle_line1": "1 34376U 97051FU  25340.79548996  .00012526  00000+0  24561-2 0  9991",
        "tle_line2": "2 34376  86.2982   9.2122 0026486 186.8183 173.2672 14.62441740879204"
      },
      "geometry": {
        "type": "Point",
        "coordinates": [
          1.966997819129688,
          -61.93253272948375
        ]
      }
    },
    {
      "type": "Feature",
      "properties": {
        "norad_id": 34486,
        "name": "IRIDIUM 33 DEB",
        "group": "iridium-33-debris",
        "lat": -58.84798860009594,
        "lon": -159.52021839445797,
        "alt_km": 591.1340150425822,
        "timestamp": "2025-12-07T09:35:10.174525+00:00",
        "meta_object_name": "IRIDIUM 33 DEB",
        "meta_object_id": "1997-051GB",
        "meta_epoch": "2025-12-06T13:48:30.216672",
        "meta_mean_motion": 14.95383361,
        "meta_eccentricity": 0.00132255,
        "meta_inclination": 86.3926,
        "meta_ra_of_asc_node": 14.8692,
        "meta_arg_of_pericenter": 133.3497,
        "meta_mean_anomaly": 352.0422,
        "meta_ephemeris_type": 0,
        "meta_classification_type": "U",
        "meta_norad_cat_id": 34486,
        "meta_element_set_no": 999,
        "meta_rev_at_epoch": 88894,
        "meta_bstar": 0.0035222853,
        "meta_mean_motion_dot": 0.00039136,
        "meta_mean_motion_ddot": 0,
        "tle_line1": "1 34486U 97051GB  25340.57534973  .00039136  00000+0  35223-2 0  9992",
        "tle_line2": "2 34486  86.3926  14.8692 0013225 133.3497 352.0422 14.95383361888942"
      },
      "geometry": {
        "type": "Point",
        "coordinates": [
          -159.52021839445797,
          -58.84798860009594
        ]
      }
    },
    {
      "type": "Feature",
      "properties": {
        "norad_id": 34487,
        "name": "IRIDIUM 33 DEB",
        "group": "iridium-33-debris",
        "lat": -0.34365594489446344,
        "lon": -165.30126031750987,
        "alt_km": 732.3103723810782,
        "timestamp": "2025-12-07T09:35:10.174535+00:00",
        "meta_object_name": "IRIDIUM 33 DEB",
        "meta_object_id": "1997-051GC",
        "meta_epoch": "2025-12-05T08:34:04.230624",
        "meta_mean_motion": 14.43201608,
        "meta_eccentricity": 0.00321216,
        "meta_inclination": 86.3441,
        "meta_ra_of_asc_node": 15.5556,
        "meta_arg_of_pericenter": 151.732,
        "meta_mean_anomaly": 223.5238,
        "meta_ephemeris_type": 0,
        "meta_classification_type": "U",
        "meta_norad_cat_id": 34487,
        "meta_element_set_no": 999,
        "meta_rev_at_epoch": 88142,
        "meta_bstar": 0.00035058691,
        "meta_mean_motion_dot": 1.205e-05,
        "meta_mean_motion_ddot": 0,
        "tle_line1": "1 34487U 97051GC  25339.35699341  .00001205  00000+0  35059-3 0  9992",
        "tle_line2": "2 34487  86.3441  15.5556 0032121 151.7320 223.5238 14.43201608881426"
      },
      "geometry": {
        "type": "Point",
        "coordinates": [
          -165.30126031750987,
          -0.34365594489446344
        ]
      }
    },
    {
      "type": "Feature",
      "properties": {
        "norad_id": 34488,
        "name": "IRIDIUM 33 DEB",
        "group": "iridium-33-debris",
        "lat": -47.934911290735506,
        "lon": -55.630613874566706,
        "alt_km": 492.6722464309414,
        "timestamp": "2025-12-07T09:35:10.174545+00:00",
        "meta_object_name": "IRIDIUM 33 DEB",
        "meta_object_id": "1997-051GD",
        "meta_epoch": "2025-12-06T14:55:40.946016",
        "meta_mean_motion": 15.27290051,
        "meta_eccentricity": 0.00149214,
        "meta_inclination": 86.3249,
        "meta_ra_of_asc_node": 308.8374,
        "meta_arg_of_pericenter": 60.0841,
        "meta_mean_anomaly": 300.1886,
        "meta_ephemeris_type": 0,
        "meta_classification_type": "U",
        "meta_norad_cat_id": 34488,
        "meta_element_set_no": 999,
        "meta_rev_at_epoch": 89146,
        "meta_bstar": 0.0068100775,
        "meta_mean_motion_dot": 0.0018679,
        "meta_mean_motion_ddot": 0,
        "tle_line1": "1 34488U 97051GD  25340.62200169  .00186790  00000+0  68101-2 0  9997",
        "tle_line2": "2 34488  86.3249 308.8374 0014921  60.0841 300.1886 15.27290051891466"
      },
      "geometry": {
        "type": "Point",
        "coordinates": [
          -55.630613874566706,
          -47.934911290735506
        ]
      }
    }
  ]
}